POLYGON ((75.8697508 10.9703693, 75.8692861 10.9720227, 75.8688676 10.9736816, 75.8687067 10.9743557, 75.8684063 10.9751825, 75.8681998 10.9757275, 75.8678913 10.9763516, 75.8677196 10.9766886, 75.867725 10.9767755, 75.8677626 10.9769019, 75.8678538 10.9771573, 75.8679055 10.977459, 75.8679503 10.9777208, 75.8678967 10.9782422, 75.8677867 10.9784212, 75.8676204 10.9785976, 75.8675989 10.978674, 75.8675265 10.979148, 75.8674514 10.9794797, 75.8673549 10.9798852, 75.8672556 10.9803618, 75.8672258 10.9805025, 75.8671886 10.9806778, 75.8670813 10.9810333, 75.866856 10.981423, 75.8666897 10.9817916, 75.8664912 10.9821813, 75.8663356 10.9823735, 75.8662203 10.9823972, 75.8659145 10.9823314, 75.8658528 10.9824183, 75.8658475 10.9825736, 75.8659118 10.982829, 75.8659387 10.9837532, 75.8658582 10.9843615, 75.8657831 10.9848091, 75.8656543 10.9853568, 75.8653566 10.986826, 75.8652179 10.9874325, 75.8650964 10.9879635, 75.8648202 10.9889482, 75.864383 10.9908914, 75.8641443 10.9918683, 75.8639079 10.9927004, 75.8638653 10.9928504, 75.8631287 10.9953078, 75.8630982 10.9954096, 75.8626825 10.9969315, 75.8624831 10.9977558, 75.8623016 10.998506, 75.8618188 11.0002753, 75.861371 11.0018592, 75.8608854 11.003577, 75.8606279 11.0043879, 75.8600277 11.0064503, 75.859437 11.0085163, 75.8590883 11.0095378, 75.8589059 11.0099696, 75.8584982 11.0114019, 75.8581871 11.0123971, 75.8577311 11.0144665, 75.8572322 11.01642, 75.8568084 11.0181155, 75.8563417 11.0195635, 75.8559984 11.0204376, 75.8559045 11.0207404, 75.8555102 11.0223542, 75.8551669 11.02356, 75.8549508 11.0244364, 75.854845 11.0248658, 75.8545124 11.0262928, 75.8541208 11.0278724, 75.8539938 11.0283847, 75.8536273 11.0298627, 75.8533376 11.0313106, 75.8532304 11.0321741, 75.8528924 11.03378, 75.8525579 11.0355903, 75.8525169 11.0358124, 75.8519751 11.038703, 75.8515513 11.0406932, 75.8510953 11.0428941, 75.8507068 11.0444639, 75.8506393 11.0447368, 75.8503336 11.0458162, 75.8501351 11.0463321, 75.8499956 11.0469745, 75.8498508 11.0478327, 75.8497982 11.0480558, 75.8497409 11.0482986, 75.8492285 11.0504704, 75.8488154 11.0523289, 75.848776 11.0525298, 75.8483326 11.0547877, 75.8478981 11.0569147, 75.8473885 11.0585994, 75.8473354 11.0588168, 75.8472588 11.0591303, 75.8471042 11.0597629, 75.8466804 11.0616003, 75.8463263 11.0631352, 75.8462942 11.0632745, 75.8458221 11.0650645, 75.8456182 11.0659332, 75.8449584 11.0681128, 75.8448368 11.0685426, 75.8440411 11.0713558, 75.8434188 11.07333, 75.8431796 11.0741916, 75.8429307 11.0750883, 75.8423406 11.0770414, 75.8419865 11.0783891, 75.8414394 11.0803001, 75.8413494 11.0804847, 75.8407474 11.0823638, 75.8401787 11.0841326, 75.8394706 11.0864489, 75.8389576 11.0878846, 75.8388913 11.0880703, 75.838666 11.0887705, 75.8384085 11.0898918, 75.8380061 11.0917448, 75.8376596 11.0929366, 75.837648 11.0929634, 75.8375072 11.0934504, 75.836767 11.0958719, 75.8358711 11.0985197, 75.8351147 11.100778, 75.8348724 11.1014724, 75.8344388 11.1027152, 75.8334732 11.1053893, 75.8324915 11.1083002, 75.832097 11.1098011, 75.8319712 11.1102795, 75.831542 11.1113796, 75.8313554 11.1119545, 75.8310056 11.1130325, 75.8302814 11.1150485, 75.8298801 11.1161468, 75.8296323 11.1168171, 75.8294392 11.1169698, 75.8292782 11.1172014, 75.8288115 11.1182962, 75.8282912 11.11907, 75.8280444 11.1191911, 75.8278888 11.1193858, 75.8277494 11.1198385, 75.8275509 11.1203122, 75.82717 11.1212387, 75.8264244 11.1221966, 75.8260435 11.1227441, 75.8258986 11.1228072, 75.8257538 11.1228441, 75.8256894 11.1229599, 75.8256036 11.1233915, 75.8261483 11.1252917, 75.8268213 11.1262128, 75.8275938 11.1272655, 75.8283019 11.1284235, 75.8293962 11.1295604, 75.8311772 11.1306342, 75.8322501 11.1312869, 75.8332371 11.1322553, 75.8348894 11.1335396, 75.8373356 11.135266, 75.8402324 11.1374767, 75.8416915 11.1393925, 75.8437729 11.1418558, 75.8465194 11.1432453, 75.8490729 11.1438137, 75.850017 11.14394, 75.851562 11.1433716, 75.8528602 11.1418137, 75.8539867 11.1406873, 75.8554673 11.1394242, 75.8560842 11.1396557, 75.8568191 11.1399399, 75.858128 11.1405083, 75.8592009 11.1410452, 75.859394 11.1416874, 75.8588576 11.1441506, 75.857715 11.1443453, 75.8575487 11.1449558, 75.8574521 11.1460559, 75.8573073 11.1465717, 75.8571947 11.1470769, 75.8568942 11.1473506, 75.8565295 11.1474032, 75.8561218 11.1474243, 75.855698 11.1474085, 75.8552098 11.1474822, 75.854888 11.1476559, 75.8545875 11.1479243, 75.8543944 11.1481243, 75.8542389 11.1484822, 75.8541691 11.1489348, 75.8543944 11.1492611, 75.8546358 11.1495296, 75.8549577 11.1497559, 75.8550382 11.1500348, 75.8548665 11.1505296, 75.8542013 11.1515085, 75.853823 11.1519518, 75.853402 11.1524453, 75.85329 11.1525214, 75.8531928 11.1525875, 75.8528495 11.1526401, 75.8525169 11.1526559, 75.8520716 11.1527348, 75.8517444 11.1528927, 75.8516425 11.1531348, 75.851739 11.1535032, 75.8518892 11.1538822, 75.8520555 11.1542769, 75.8523452 11.1545453, 75.8527797 11.1547822, 75.8530641 11.1550137, 75.8531606 11.1552348, 75.8535629 11.1556979, 75.8539009 11.1562453, 75.8543408 11.1564558, 75.8546948 11.1564821, 75.8552635 11.1563663, 75.8557516 11.1563611, 75.8561003 11.1564348, 75.8563846 11.1566032, 75.8564466 11.1567024, 75.8564812 11.15684, 75.8566636 11.1571295, 75.8568406 11.1575189, 75.8580798 11.1577926, 75.8584499 11.1579137, 75.8587182 11.1580926, 75.8588844 11.1583295, 75.8590293 11.1586926, 75.8591473 11.1590926, 75.8595282 11.1596347, 75.8598715 11.1602662, 75.8601505 11.1604715, 75.8603543 11.1606294, 75.8604723 11.1609662, 75.8604455 11.1615136, 75.8599842 11.1621662, 75.8597428 11.1623714, 75.8596891 11.1627872, 75.8596247 11.1631451, 75.8598661 11.1634766, 75.8601236 11.1639713, 75.8603865 11.1645766, 75.8606118 11.1651976, 75.860939 11.1655818, 75.861057 11.1658923, 75.8610395 11.1661988, 75.8609927 11.1663975, 75.8608103 11.1670291, 75.8607084 11.1674185, 75.8607674 11.1678396, 75.8609369 11.1681814, 75.8609497 11.1682606, 75.8610902 11.168321, 75.8613414 11.168429, 75.8615988 11.1684764, 75.8619904 11.1683869, 75.8625859 11.1682448, 75.8629131 11.1681869, 75.8633745 11.1682027, 75.8635515 11.1685658, 75.8634925 11.1688448, 75.8636105 11.1690026, 75.863632 11.1693605, 75.8645761 11.1697289, 75.8649087 11.1700552, 75.8662122 11.1712394, 75.8665985 11.1728866, 75.8676767 11.1734339, 75.8683741 11.1735181, 75.8694469 11.1735655, 75.8703374 11.1737444, 75.8707898 11.1735291, 75.8707934 11.1731707, 75.8706433 11.1727288, 75.8703428 11.1720656, 75.8700209 11.1705394, 75.8716894 11.1702395, 75.8730089 11.1691184, 75.8741784 11.169371, 75.8742337 11.1693269, 75.8745807 11.16905, 75.8746397 11.1682448, 75.8749831 11.1678395, 75.8756644 11.1680606, 75.8760286 11.1679428, 75.8766246 11.1677501, 75.8774185 11.1681449, 75.8781756 11.1687036, 75.8791512 11.1694236, 75.8801275 11.169771, 75.8811307 11.1699184, 75.8811736 11.1713551, 75.8809885 11.1728997, 75.881517 11.1733103, 75.881996 11.1732453, 75.8826622 11.173155, 75.8833532 11.1728893, 75.8840462 11.1727208, 75.8851325 11.172484, 75.8865488 11.1723155, 75.8871496 11.1722551, 75.8876074 11.1725047, 75.8878683 11.1725805, 75.8880079 11.1725919, 75.888319 11.1733497, 75.8879971 11.1740339, 75.8873963 11.1742128, 75.8866453 11.1744655, 75.8870423 11.1760442, 75.8868813 11.1768862, 75.8870583 11.1778572, 75.8871459 11.1786157, 75.8873212 11.179065, 75.887613 11.1802732, 75.8876323 11.180928, 75.8858943 11.1812964, 75.8855617 11.1824962, 75.8854838 11.1828504, 75.8852076 11.1841065, 75.8841454 11.184717, 75.8835339 11.1848854, 75.882504 11.1848223, 75.881356 11.1846644, 75.8812184 11.1845824, 75.880208 11.1839803, 75.8797789 11.1834961, 75.8792531 11.1831277, 75.8786201 11.1831487, 75.8773112 11.1833593, 75.8764876 11.1837882, 75.8764422 11.1838119, 75.8762491 11.1858116, 75.8758735 11.1863905, 75.8744359 11.1866957, 75.8735883 11.187222, 75.8729126 11.1875132, 75.872172 11.1878325, 75.8716769 11.1881031, 75.8707666 11.1886007, 75.8692539 11.1880113, 75.869058 11.1880813, 75.8668077 11.1888848, 75.865808 11.1893494, 75.8653808 11.1895479, 75.865147 11.1894642, 75.8627522 11.1896847, 75.8626412 11.1897283, 75.8620548 11.1899584, 75.8618402 11.1909478, 75.8610463 11.1917476, 75.8602349 11.1927422, 75.8600914 11.1943683, 75.858686 11.1949261, 75.858922 11.1960838, 75.8608531 11.1964207, 75.8605957 11.1975994, 75.8605862 11.1980099, 75.8605528 11.1994517, 75.8594552 11.2004265, 75.8587289 11.2006199, 75.8574414 11.2008935, 75.8568191 11.2017671, 75.8570337 11.2028511, 75.8575058 11.2047455, 75.857141 11.2065662, 75.8578276 11.2077449, 75.8590078 11.2060821, 75.8595228 11.2053033, 75.8605957 11.2048402, 75.8622265 11.2050718, 75.8642649 11.2052822, 75.8657884 11.2056611, 75.8675694 11.2061031, 75.8685136 11.2065452, 75.8696508 11.2071556, 75.8718242 11.2102244, 75.8724832 11.2111548, 75.8751011 11.2159327, 75.8765173 11.2186689, 75.8768671 11.2203535, 75.8769893 11.220942, 75.8773112 11.2225837, 75.8786845 11.2235308, 75.8821606 11.2256987, 75.8852901 11.2274094, 75.8875894 11.2286663, 75.8902287 11.2293609, 75.8933615 11.2296134, 75.8953786 11.2297818, 75.8965859 11.2301201, 75.897181 11.2302869, 75.8992839 11.2334018, 75.8996486 11.2351698, 75.8995206 11.2357796, 75.8990478 11.2380321, 75.8991766 11.2394421, 75.8995199 11.2405786, 75.8998847 11.2418835, 75.9007859 11.2423675, 75.9011268 11.2424649, 75.9026742 11.2422833, 75.9038329 11.2423255, 75.9051204 11.2418835, 75.9065366 11.2412311, 75.9086394 11.2397368, 75.9100771 11.2385792, 75.9104144 11.2382592, 75.9141111 11.2364536, 75.9155917 11.2364957, 75.9170723 11.2365167, 75.9183812 11.2371692, 75.9196043 11.2382215, 75.9206342 11.2401367, 75.9207801 11.2403588, 75.9220505 11.2422413, 75.923177 11.243483, 75.924046 11.2447036, 75.9255051 11.2457559, 75.9285521 11.2468713, 75.9328182 11.247941, 75.9351825 11.2485339, 75.9388572 11.2490779, 75.9442806 11.2498808, 75.9512973 11.250407, 75.9553528 11.2514592, 75.9578633 11.2524063, 75.9603739 11.2544056, 75.9607354 11.2549001, 75.96282 11.2577517, 75.9630095 11.2580649, 75.9643864 11.2603402, 75.9662318 11.2624447, 75.9701156 11.2664431, 75.9713908 11.2671856, 75.9728622 11.2680424, 75.9749865 11.2687579, 75.9765529 11.2687158, 75.9774112 11.2681687, 75.9780931 11.2675162, 75.980072 11.2656224, 75.9823894 11.2642966, 75.9847283 11.2633285, 75.9867829 11.2625902, 75.9875393 11.2623184, 75.9885781 11.2612316, 75.9891486 11.2606348, 75.9926247 11.2581937, 75.9969511 11.2527168, 75.9971158 11.2529297, 75.9992046 11.25563, 75.9995808 11.2584505, 76.0023451 11.2587829, 76.0033945 11.2588397, 76.005394 11.258948, 76.0058427 11.2589723, 76.0089326 11.2598983, 76.0104346 11.2611609, 76.010971 11.2626762, 76.01125 11.2632444, 76.0123658 11.2655171, 76.0143399 11.2677268, 76.0164642 11.2680845, 76.0179582 11.2684608, 76.0180521 11.2684844, 76.0184801 11.2686418, 76.0191279 11.26888, 76.019597 11.2690525, 76.0210784 11.2693006, 76.0222363 11.2694945, 76.0256632 11.2693502, 76.027236 11.269284, 76.0303473 11.2681477, 76.0312915 11.2675795, 76.0330081 11.2674532, 76.0335139 11.2675199, 76.0354294 11.2677725, 76.0355615 11.2677899, 76.03863 11.2678951, 76.0420418 11.2678741, 76.0447883 11.2675374, 76.0476208 11.2683371, 76.0488868 11.2685896, 76.0497555 11.2687575, 76.0498953 11.2690525, 76.0500724 11.2695075, 76.0504102 11.270715, 76.0521483 11.2726721, 76.0547815 11.2752752, 76.0548305 11.2753236, 76.0559362 11.2758898, 76.0567617 11.2763126, 76.0586285 11.2771123, 76.0586713 11.2784001, 76.0586929 11.2790483, 76.0608816 11.2815945, 76.0618257 11.2834252, 76.0628772 11.2843511, 76.06601 11.2854664, 76.0680393 11.2859427, 76.0685205 11.2860556, 76.0727262 11.2876127, 76.0729837 11.29119, 76.0717177 11.2914214, 76.0704088 11.2920106, 76.0697222 11.2934415, 76.0696792 11.29422, 76.0702371 11.295209, 76.0709197 11.2958258, 76.0713315 11.296198, 76.0734948 11.2976028, 76.0761595 11.2993332, 76.0831547 11.3038993, 76.0841846 11.3050986, 76.0846782 11.3061928, 76.0845279 11.3077919, 76.0838413 11.3088019, 76.0851502 11.3096435, 76.087532 11.3111795, 76.0891199 11.3117055, 76.0910296 11.3122315, 76.0926175 11.3120632, 76.0938191 11.3113689, 76.0952353 11.3111585, 76.0964799 11.3112637, 76.0978746 11.3118528, 76.0989475 11.3125682, 76.1024988 11.3126734, 76.1037326 11.312726, 76.1048441 11.3132113, 76.1051059 11.3133256, 76.106614 11.3145353, 76.1076709 11.3149439, 76.1095515 11.3146049, 76.1109611 11.3140138, 76.1114747 11.3137985, 76.1145722 11.3150594, 76.1175309 11.3182872, 76.1186538 11.320058, 76.1199593 11.3231092, 76.1199928 11.3255299, 76.1191379 11.3268454, 76.1176377 11.3281893, 76.1156953 11.3300262, 76.1154534 11.3310345, 76.1158552 11.3320427, 76.1166409 11.3335818, 76.1147497 11.3344987, 76.1133586 11.3378519, 76.1096688 11.338485, 76.1047454 11.3398519, 76.1008492 11.3415436, 76.1003155 11.3410359, 76.0981447 11.3435708, 76.0966298 11.3452836, 76.0948528 11.3470642, 76.0928163 11.3512006, 76.0920709 11.3527147, 76.0945298 11.3534532, 76.0934797 11.3557972, 76.0944636 11.3585016, 76.0969924 11.3632045, 76.0996862 11.3665486, 76.1013494 11.3688723, 76.1006457 11.370871, 76.0991655 11.3751124, 76.0989743 11.3763778, 76.0987789 11.3778268, 76.0983482 11.3830097, 76.0989739 11.385004, 76.0993105 11.3867413, 76.0996341 11.387737, 76.1000006 11.3891835, 76.1000766 11.3896792, 76.100502 11.3924561, 76.1004394 11.3953396, 76.1029578 11.3970497, 76.1038945 11.3982863, 76.1046991 11.4002472, 76.1061681 11.4023007, 76.1063448 11.4046826, 76.1060817 11.4094587, 76.1096719 11.4102675, 76.1121168 11.4102247, 76.1145716 11.4092599, 76.1174076 11.4082604, 76.1193897 11.4104018, 76.1199326 11.4134788, 76.1211143 11.4154398, 76.1227755 11.4172323, 76.1250543 11.4190568, 76.1263235 11.4221014, 76.1287221 11.4251589, 76.131268 11.4272668, 76.1328074 11.4249864, 76.1353024 11.422968, 76.1373186 11.4203984, 76.1379379 11.419586, 76.140182 11.4194485, 76.1440515 11.4225272, 76.1463748 11.4302551, 76.1429363 11.4326805, 76.1409508 11.435035, 76.1392742 11.4379249, 76.138764 11.4397906, 76.1389379 11.4426119, 76.1394659 11.4445737, 76.141391 11.4461535, 76.1423187 11.4479961, 76.1433419 11.451361, 76.1438473 11.4518731, 76.1461959 11.4519238, 76.1482461 11.4530083, 76.1508818 11.4522716, 76.1528967 11.4536689, 76.1569291 11.4553921, 76.1577365 11.4563803, 76.1581636 11.4567775, 76.1588996 11.4569795, 76.1598267 11.4560097, 76.1612941 11.4560103, 76.1631384 11.4577747, 76.1647056 11.4595866, 76.1660294 11.4619796, 76.1674098 11.4641372, 76.1690669 11.466241, 76.171027 11.4671029, 76.1730414 11.4675475, 76.1753372 11.4682765, 76.1772859 11.4709391, 76.1800072 11.4715408, 76.1813862 11.4734686, 76.182909 11.4749611, 76.1852464 11.4752812, 76.1862272 11.4756257, 76.1865622 11.4776564, 76.1859331 11.4791511, 76.1842809 11.4812651, 76.1829884 11.4824393, 76.1820758 11.4833814, 76.1820288 11.483704, 76.1823619 11.484166, 76.1825169 11.4841948, 76.1828056 11.4843169, 76.183017 11.4843408, 76.1833196 11.4841843, 76.1837825 11.4841227, 76.1840487 11.4840214, 76.1842674 11.4839668, 76.1844594 11.4839189, 76.1847802 11.4840407, 76.1849531 11.4843317, 76.1851458 11.4845743, 76.1852393 11.4846921, 76.1852839 11.4849542, 76.1849527 11.4854997, 76.1851146 11.4858996, 76.1851066 11.4859914, 76.1850692 11.4864208, 76.1850489 11.4866538, 76.185064 11.486762, 76.1851371 11.4872839, 76.1851528 11.4874024, 76.185209 11.4878268, 76.185078 11.4881878, 76.1850109 11.4883728, 76.1853356 11.4882941, 76.1855199 11.4883124, 76.1857564 11.4883359, 76.1859355 11.4885298, 76.18577 11.4889923, 76.1857148 11.4891467, 76.1856638 11.4894604, 76.1859209 11.4897696, 76.1862213 11.4897485, 76.1865598 11.4897248, 76.186652 11.4897183, 76.1872141 11.4903465, 76.1873433 11.4903368, 76.1881339 11.4902772, 76.1883587 11.4904556, 76.1882958 11.4907642, 76.1878664 11.4909526, 76.1876758 11.491432, 76.1882612 11.4917652, 76.1888395 11.4920915, 76.1895567 11.4926562, 76.1899625 11.4931792, 76.1886708 11.4945928, 76.189831 11.4949984, 76.1898934 11.4951943, 76.1899714 11.4954389, 76.1905815 11.4954024, 76.1908255 11.4955016, 76.1910404 11.4955891, 76.1911381 11.4956288, 76.1911804 11.4959343, 76.1912444 11.4963971, 76.1912602 11.4965115, 76.1918476 11.4968077, 76.1919297 11.4968491, 76.1920611 11.4973073, 76.1923783 11.4976469, 76.1924958 11.4977728, 76.192899 11.4987197, 76.1939493 11.4998175, 76.1947163 11.5003712, 76.1951047 11.5008017, 76.1954278 11.5011598, 76.1957201 11.5013906, 76.1960907 11.5016834, 76.1961896 11.5017615, 76.1965143 11.5019371, 76.1967058 11.5020406, 76.1970382 11.5022204, 76.197034 11.5034615, 76.1970325 11.5038864, 76.1977236 11.5044746, 76.1979968 11.5047071, 76.1982129 11.504891, 76.1992788 11.506025, 76.1996535 11.5064236, 76.2002043 11.5070095, 76.2003399 11.5070594, 76.2005476 11.5071357, 76.2007648 11.5073022, 76.2007944 11.5073249, 76.2011484 11.5075352, 76.2017278 11.5076088, 76.2023393 11.5075562, 76.2025002 11.5074717, 76.2026397 11.5073985, 76.2034873 11.5071567, 76.2042705 11.5070411, 76.2049679 11.5071567, 76.2056867 11.5074301, 76.2061187 11.5076193, 76.206191 11.5076509, 76.2062358 11.5076866, 76.2067059 11.5080609, 76.2073819 11.5086601, 76.2079827 11.5089965, 76.2084762 11.5092068, 76.2091092 11.5094907, 76.2102572 11.5095958, 76.2110189 11.5096168, 76.2117163 11.5096694, 76.2123493 11.5098481, 76.2130681 11.5101845, 76.2138835 11.5103632, 76.2146238 11.5103002, 76.2147995 11.5103206, 76.2152568 11.5103738, 76.2157289 11.5102161, 76.2164048 11.5101004, 76.2169627 11.5103002, 76.2176386 11.5107417, 76.2181751 11.5109625, 76.2189797 11.5112358, 76.2196342 11.5116353, 76.2201063 11.5118245, 76.2210611 11.5117667, 76.2213136 11.5120999, 76.222692 11.5124592, 76.2233747 11.5124873, 76.2239929 11.5123783, 76.224249 11.5122885, 76.2245058 11.5123588, 76.2249431 11.5125524, 76.2251357 11.5128802, 76.2259465 11.5131721, 76.2265756 11.5138011, 76.2266069 11.5149689, 76.226606 11.5156006, 76.226945 11.5159837, 76.2271971 11.5169244, 76.2272033 11.5187136, 76.2272556 11.5191225, 76.2275403 11.5197012, 76.2278634 11.5202139, 76.2277426 11.5208539, 76.2276497 11.5211836, 76.2277498 11.5215868, 76.2281146 11.5220003, 76.228305 11.5225383, 76.2285032 11.5231501, 76.228833 11.5235568, 76.2290944 11.5238709, 76.229107 11.524697, 76.2293531 11.5249879, 76.229715 11.5253582, 76.2299471 11.5254229, 76.2302492 11.5256641, 76.2302438 11.5260325, 76.2304442 11.5262944, 76.2310703 11.5266462, 76.2314793 11.5267816, 76.2317649 11.527025, 76.2319682 11.5272748, 76.2320467 11.527858, 76.2323041 11.5280577, 76.2326022 11.5281371, 76.2330836 11.5286694, 76.2333428 11.5289556, 76.2335169 11.5290072, 76.2337922 11.5291141, 76.2340291 11.5292791, 76.2345253 11.5291104, 76.2348479 11.5290307, 76.235193 11.5290251, 76.2354361 11.529016, 76.2356977 11.5288014, 76.2359204 11.528746, 76.236169 11.5285865, 76.2362859 11.5283935, 76.2365403 11.5282753, 76.2368269 11.5278012, 76.2370702 11.5276617, 76.2377236 11.5274499, 76.2382558 11.5268585, 76.2387424 11.5266117, 76.2384322 11.5247987, 76.2394117 11.5239376, 76.2404641 11.5228715, 76.2425143 11.5211083, 76.2427695 11.5192267, 76.2434893 11.5190855, 76.2437809 11.5179738, 76.2446284 11.5170944, 76.2455122 11.5165842, 76.24615 11.5165888, 76.2481466 11.516487, 76.2483415 11.5139736, 76.249157 11.5129166, 76.2488654 11.5088982, 76.2485328 11.5063788, 76.2490224 11.5058464, 76.2506553 11.5034507, 76.2515899 11.5018, 76.2516537 11.5004787, 76.2512983 11.4994217, 76.2498404 11.4984012, 76.2495725 11.4956894, 76.2493788 11.4918438, 76.2486386 11.481122, 76.2476106 11.4685065, 76.2556204 11.4744615, 76.263497 11.4804004, 76.2649417 11.4810284, 76.266488 11.4809244, 76.2681842 11.480235, 76.2691305 11.4786828, 76.2699008 11.4776695, 76.2750322 11.4771692, 76.2783521 11.4794344, 76.280415 11.479541, 76.2817196 11.4795578, 76.2844385 11.4829981, 76.2879773 11.4796658, 76.2939601 11.4731428, 76.2934827 11.4720758, 76.292882 11.4703514, 76.2905801 11.4695526, 76.2915257 11.4685347, 76.2935871 11.4656344, 76.2949419 11.465704, 76.2963754 11.4654522, 76.3052997 11.4677593, 76.3068293 11.4662754, 76.3087786 11.4643842, 76.3102803 11.4641765, 76.3149277 11.4608576, 76.3190278 11.4582355, 76.3254367 11.4533506, 76.3309852 11.4582728, 76.3361219 11.4618256, 76.3381448 11.4617892, 76.3390196 11.4639578, 76.3421207 11.4674834, 76.3456349 11.4646321, 76.3481957 11.4632695, 76.3586833 11.4591649, 76.3655619 11.4565114, 76.3711553 11.4543537, 76.3720415 11.4533697, 76.3729709 11.4510188, 76.378511 11.4491053, 76.3896094 11.4405218, 76.397844 11.4347182, 76.4087264 11.4387358, 76.4187642 11.4417658, 76.4152045 11.422658, 76.4523119 11.3947281, 76.4538262 11.3935872, 76.4619255 11.3874846, 76.4698679 11.384975, 76.4750584 11.3836497, 76.4990248 11.3772578, 76.5003202 11.3759541, 76.5176401 11.370785, 76.5150427 11.3588979, 76.5080584 11.353472, 76.5202573 11.3548872, 76.5280889 11.355801, 76.5328959 11.3564755, 76.5385077 11.3570767, 76.5417944 11.3575485, 76.547735 11.3582138, 76.5478066 11.3561767, 76.5472279 11.3442238, 76.5499689 11.3302357, 76.5417471 11.3200309, 76.540968 11.318763, 76.5394559 11.3165761, 76.5373879 11.3136098, 76.5382643 11.3084039, 76.5394523 11.3036723, 76.5455218 11.2995883, 76.5364038 11.2930895, 76.5260648 11.2875114, 76.5250054 11.2828997, 76.5239781 11.2787446, 76.5221244 11.2706426, 76.5105986 11.2670474, 76.5048753 11.2647307, 76.5022543 11.2635549, 76.5016688 11.2632751, 76.5001783 11.2631587, 76.4985637 11.2631047, 76.486961 11.2582305, 76.4758058 11.2513779, 76.4730447 11.2493719, 76.4661502 11.2450693, 76.4532206 11.2394311, 76.4523455 11.2343104, 76.4520843 11.2326571, 76.4502017 11.2134345, 76.4489923 11.2054777, 76.439235 11.2030082, 76.4375066 11.2042088, 76.4363908 11.202988, 76.4351892 11.2021039, 76.4323568 11.2022302, 76.4301252 11.2034931, 76.4299536 11.203893, 76.429739 11.2051349, 76.4284515 11.2074503, 76.4249754 11.2092183, 76.4222288 11.2091973, 76.4183879 11.208629, 76.4163065 11.2102918, 76.4139032 11.2109443, 76.4105344 11.209934, 76.4080667 11.2085027, 76.4052772 11.2095761, 76.4045906 11.2095761, 76.40311 11.2078502, 76.4045477 11.2053875, 76.4045262 11.2047771, 76.4042569 11.2028607, 76.4041614 11.2022933, 76.4043546 11.2010935, 76.406393 11.20042, 76.4066934 11.1990307, 76.4051485 11.1980625, 76.4060926 11.1949893, 76.4062213 11.1933474, 76.4043878 11.1901854, 76.4025095 11.1885631, 76.4022302 11.1875377, 76.4029598 11.1859379, 76.4056205 11.1839171, 76.4061784 11.1819805, 76.4068651 11.1790755, 76.4072942 11.1781914, 76.4094829 11.1769705, 76.4103841 11.1759179, 76.4121866 11.1717078, 76.4136886 11.1708236, 76.4130878 11.1668239, 76.410985 11.1648029, 76.4108562 11.1639609, 76.4113712 11.163203, 76.4114141 11.1616452, 76.4100837 11.1598347, 76.4084959 11.1569295, 76.4065218 11.1561295, 76.4061784 11.1528875, 76.4078092 11.1504454, 76.4103841 11.1489296, 76.4104271 11.1451401, 76.4131522 11.1432874, 76.4136886 11.1417716, 76.4128303 11.1403821, 76.4105558 11.1391189, 76.4102125 11.1349924, 76.4086246 11.1327607, 76.4081955 11.129392, 76.4086492 11.1257519, 76.4087104 11.1244232, 76.4084959 11.1186963, 76.4031314 11.1154117, 76.3986682 11.113601, 76.3909006 11.112085, 76.3858366 11.1116218, 76.3853431 11.1087372, 76.3865232 11.1077476, 76.3894414 11.1031574, 76.3887119 11.0999147, 76.3875532 11.0987356, 76.382339 11.1002937, 76.3756656 11.0969669, 76.3687563 11.0985671, 76.3672971 11.0975143, 76.3651084 11.0974301, 76.360259 11.0979354, 76.3573408 11.0930924, 76.3513326 11.0924186, 76.3494722 11.0900813, 76.3477706 11.0882915, 76.3462043 11.0885019, 76.3457322 11.0878492, 76.3441229 11.0879756, 76.3428783 11.0861225, 76.3425779 11.0830903, 76.3395095 11.0776995, 76.3381576 11.0777838, 76.3368273 11.0759517, 76.335175 11.0748988, 76.3339734 11.0747303, 76.3338017 11.0741618, 76.3323534 11.0735616, 76.331951 11.0730337, 76.3315594 11.0725824, 76.330862 11.0727088, 76.3297677 11.0738459, 76.3293815 11.0738143, 76.3311839 11.0706029, 76.330626 11.0690867, 76.3316774 11.067402, 76.3327932 11.0668966, 76.3334155 11.0664333, 76.3335871 11.0626006, 76.3346064 11.0626849, 76.3345742 11.0602631, 76.3346064 11.057736, 76.3325357 11.0571568, 76.3318705 11.0562829, 76.332525 11.0553879, 76.3324714 11.0542506, 76.3308513 11.0531029, 76.3285983 11.0519446, 76.3264095 11.0501545, 76.323702 11.0511284, 76.3224184 11.0518393, 76.3215601 11.0508179, 76.3198954 11.0500818, 76.3170932 11.0511027, 76.3145576 11.0515024, 76.3141572 11.0515655, 76.3124835 11.0504178, 76.3094869 11.0476181, 76.307795 11.0466586, 76.3054454 11.0471008, 76.3022697 11.0495754, 76.3009608 11.050382, 76.2990403 11.0515655, 76.2967551 11.0510812, 76.297238 11.0476615, 76.2949498 11.0451814, 76.2939044 11.0425266, 76.2929944 11.0418051, 76.2916358 11.0396945, 76.2893885 11.0399344, 76.2879187 11.0386881, 76.2876079 11.0384246, 76.285469 11.0353228, 76.2860072 11.0344047, 76.2882844 11.034304, 76.2892395 11.0334448, 76.2889512 11.0321841, 76.2875146 11.0296064, 76.288662 11.0275146, 76.2865559 11.0240981, 76.2869655 11.0234045, 76.2884763 11.020846, 76.2895058 11.0208663, 76.2944894 11.024, 76.2972246 11.0233695, 76.2990935 11.0240191, 76.3006315 11.0266482, 76.3044373 11.0263217, 76.3062867 11.027621, 76.3090613 11.02574, 76.3123606 11.0273822, 76.3156506 11.026465, 76.3190735 11.0268596, 76.3202257 11.0276584, 76.3218023 11.0278694, 76.3222695 11.0260542, 76.3223182 11.0245446, 76.3239048 11.0246879, 76.3251215 11.0250796, 76.3257469 11.0243834, 76.3255108 11.0224618, 76.3272045 11.0225383, 76.3306989 11.0218408, 76.3310591 11.0200064, 76.3297981 11.0171026, 76.3292081 11.0155004, 76.3275744 11.0110635, 76.3263495 11.0049, 76.3267295 11.0042044, 76.3286274 11.0014307, 76.3332867 11.0002385, 76.3374347 10.9992024, 76.3419059 10.9980855, 76.3494575 10.9955054, 76.3532948 10.9965544, 76.3564141 10.9974072, 76.359729 10.9983583, 76.3694429 10.9972053, 76.3724065 10.9952749, 76.371866 10.9917775, 76.3691687 10.9846363, 76.3659676 10.9789017, 76.3653526 10.9758446, 76.3648254 10.9732239, 76.3527603 10.9746205, 76.3523542 10.9746675, 76.3461599 10.9744021, 76.3429563 10.9745529, 76.3407733 10.9746557, 76.3375997 10.9781421, 76.3372201 10.9798655, 76.3315264 10.9788181, 76.330248 10.9756962, 76.3286662 10.9667415, 76.329898 10.962252, 76.3275975 10.9584106, 76.3243692 10.9533523, 76.3242641 10.951356, 76.3237248 10.9411152, 76.3246057 10.9305906, 76.3271862 10.9279745, 76.3321083 10.925063, 76.3329432 10.9217837, 76.3325678 10.9165873, 76.3324642 10.9151529, 76.3324539 10.9150097, 76.3324351 10.9147492, 76.3324221 10.9145697, 76.3356471 10.9147508, 76.3361189 10.909844, 76.3371098 10.9054067, 76.3330507 10.9049533, 76.3325649 10.9049631, 76.3247036 10.9051219, 76.3212919 10.9063018, 76.3207769 10.9083666, 76.3207422 10.9092614, 76.3206372 10.9119665, 76.3128966 10.9129388, 76.3106416 10.9124301, 76.3080043 10.911564, 76.3060033 10.9113375, 76.3025701 10.9136183, 76.3008218 10.9157265, 76.3006657 10.9159148, 76.2993621 10.917848, 76.2982464 10.9190436, 76.2963849 10.9201656, 76.2952852 10.9204079, 76.2942552 10.9197021, 76.2901662 10.9154116, 76.2898778 10.915109, 76.2842513 10.913126, 76.2788546 10.916416, 76.2783387 10.9162559, 76.2730122 10.9146033, 76.2710222 10.9151472, 76.2688494 10.915741, 76.2634024 10.9086563, 76.2622132 10.9069071, 76.263019 10.9026577, 76.2592837 10.8974294, 76.2577343 10.8952608, 76.2549233 10.8882652, 76.2532719 10.886242, 76.2525415 10.8849781, 76.2497091 10.8849149, 76.2483001 10.8853171, 76.244173 10.8864952, 76.239287 10.8862813, 76.2357616 10.8855259, 76.2354814 10.8855128, 76.2323822 10.8853682, 76.2303543 10.8857788, 76.2293458 10.8871695, 76.2293243 10.8895717, 76.222608 10.8994118, 76.22125 10.9023358, 76.2202692 10.9044477, 76.2179088 10.9064071, 76.2174368 10.9076081, 76.2171991 10.9098881, 76.2171363 10.9122646, 76.216185 10.9136838, 76.2160206 10.9139291, 76.2149419 10.9145707, 76.2146353 10.9145867, 76.2131774 10.9144505, 76.2120455 10.9132917, 76.2117459 10.9128449, 76.2111979 10.9120275, 76.2110837 10.911342, 76.210526 10.9079951, 76.2083387 10.905164, 76.2063432 10.9032045, 76.2057423 10.8996015, 76.2037897 10.8984004, 76.2016641 10.898895, 76.1992621 10.8994539, 76.1979488 10.8991856, 76.1958074 10.8987481, 76.1915452 10.898246, 76.1898851 10.8988218, 76.1879861 10.9000966, 76.1874819 10.9015716, 76.1878681 10.9035205, 76.1894238 10.9069339, 76.1895847 10.9084509, 76.189767 10.909989, 76.1896132 10.9103044, 76.1894023 10.910737, 76.1869347 10.911506, 76.185261 10.9114774, 76.1844671 10.9114639, 76.1820638 10.9107791, 76.1775622 10.9073193, 76.1770107 10.9068954, 76.1750275 10.9063902, 76.1733305 10.9073026, 76.172601 10.9100733, 76.1720645 10.9140028, 76.1710668 10.9156778, 76.1690807 10.915931, 76.1651122 10.9143083, 76.1626504 10.9130586, 76.1613747 10.9124357, 76.1589988 10.9116245, 76.1581921 10.9097783, 76.1581358 10.905091, 76.1573982 10.9011606, 76.1561218 10.8987559, 76.153062 10.8943986, 76.1508858 10.8912995, 76.1479998 10.8899825, 76.145854 10.8897929, 76.1410045 10.8927745, 76.1365188 10.8966518, 76.1345532 10.8972899, 76.1339557 10.8974838, 76.131378 10.894406, 76.1305761 10.8936173, 76.1305011 10.8847552, 76.1310426 10.8813169, 76.1318041 10.8792398, 76.1308833 10.8765816, 76.1295838 10.8765587, 76.1275182 10.8768829, 76.1272632 10.8769229, 76.1236325 10.8783165, 76.1211521 10.8801776, 76.1175011 10.8815602, 76.1148758 10.8816102, 76.1144394 10.8786141, 76.1146871 10.8772073, 76.1143757 10.875316, 76.1133766 10.8728701, 76.1134519 10.8675485, 76.1133042 10.8654755, 76.1117838 10.8644658, 76.1106833 10.8658025, 76.1088075 10.867149, 76.1077797 10.8679692, 76.1072514 10.8683907, 76.1061163 10.8694357, 76.1043264 10.8707797, 76.103197 10.8701256, 76.1026322 10.8683765, 76.1026467 10.8667127, 76.1034512 10.8631185, 76.1028043 10.8589797, 76.1028487 10.8571003, 76.1029422 10.8531428, 76.1031185 10.8456817, 76.098175 10.8409773, 76.0966622 10.8405196, 76.0954245 10.8401451, 76.0936488 10.8396079, 76.090757 10.8394409, 76.0887149 10.839323, 76.0794937 10.8387904, 76.0736995 10.8388679, 76.0626502 10.8386897, 76.0607528 10.8386591, 76.0534987 10.8460911, 76.053294 10.8463008, 76.0478907 10.8473589, 76.0434579 10.8482269, 76.0385656 10.8370995, 76.0356045 10.828543, 76.0297044 10.8283332, 76.0299412 10.8269467, 76.0298753 10.8264775, 76.0297212 10.8262481, 76.0293817 10.825761, 76.029396 10.8256918, 76.0281227 10.8246894, 76.026721 10.8219462, 76.0304975 10.8203655, 76.0330939 10.8195014, 76.0339308 10.8170565, 76.0365271 10.8164875, 76.0374069 10.8147171, 76.0350895 10.8103963, 76.0369587 10.8079323, 76.0437616 10.8059799, 76.0473442 10.8060514, 76.0482342 10.8042918, 76.0477858 10.8021322, 76.0494971 10.8022078, 76.0498394 10.8004486, 76.0491527 10.7983088, 76.045612 10.7965746, 76.0444552 10.7960081, 76.0426863 10.792244, 76.0431687 10.7901261, 76.0433802 10.7891973, 76.0421668 10.78589, 76.0418663 10.782445, 76.0415738 10.7787401, 76.041526 10.7768245, 76.0406294 10.7705758, 76.0415312 10.7690132, 76.0430602 10.7666747, 76.0433817 10.7645341, 76.0415957 10.7619899, 76.0417643 10.7613013, 76.0417842 10.76122, 76.042703 10.7609195, 76.0423101 10.7591298, 76.0418814 10.7564452, 76.0435296 10.7563666, 76.0440859 10.7562675, 76.0462394 10.7558837, 76.0472217 10.7555328, 76.0472753 10.7540413, 76.0477754 10.7534973, 76.0491871 10.7529775, 76.0484791 10.7503212, 76.0467624 10.7490775, 76.0464835 10.7480445, 76.04703 10.746943, 76.0484576 10.7461999, 76.0484828 10.7452769, 76.0485005 10.7446293, 76.0497106 10.743844, 76.0512149 10.7433539, 76.0537469 10.743512, 76.0543701 10.7437147, 76.0553992 10.7440496, 76.0559678 10.7433012, 76.056751 10.743122, 76.0580025 10.7438124, 76.0599817 10.7448435, 76.0615897 10.7447136, 76.0623836 10.7449666, 76.0636179 10.7458307, 76.0657272 10.7464904, 76.0666367 10.7462683, 76.0603067 10.7439163, 76.0618891 10.7421485, 76.0623306 10.7438132, 76.0641324 10.743485, 76.0665547 10.7400148, 76.0670797 10.7385729, 76.0696213 10.737424, 76.0688815 10.7368378, 76.0692462 10.7337564, 76.0687399 10.7335446, 76.0692003 10.7319378, 76.0701942 10.7303146, 76.0696156 10.729887, 76.069969 10.7290603, 76.0708487 10.7281642, 76.0708272 10.7268782, 76.0699934 10.7263915, 76.0697436 10.7262457, 76.0682416 10.7263933, 76.066525 10.727848, 76.0641861 10.7286597, 76.0634243 10.7284699, 76.0633045 10.7283432, 76.0630059 10.7280272, 76.0631776 10.7266041, 76.0637141 10.7246013, 76.0642076 10.7229146, 76.0623729 10.7211015, 76.0623185 10.7210194, 76.0619161 10.7204124, 76.0613107 10.7194991, 76.0613215 10.718698, 76.0589396 10.7166107, 76.0573968 10.7141993, 76.056633 10.7130054, 76.056353 10.7113463, 76.0523859 10.7068295, 76.051841 10.7062309, 76.0520286 10.7044402, 76.0504201 10.7042979, 76.0499923 10.70426, 76.0492387 10.7045233, 76.0488097 10.7047784, 76.0487517 10.705217, 76.0490589 10.7061056, 76.0490299 10.7067322, 76.048601 10.7070113, 76.0480966 10.7067151, 76.0472966 10.7064872, 76.0462415 10.7067663, 76.045848 10.7066232, 76.0454995 10.7057809, 76.0448676 10.705291, 76.0441545 10.7054847, 76.0440676 10.7064701, 76.043569 10.7070284, 76.0428916 10.7068167, 76.0421545 10.7055986, 76.0414995 10.7050176, 76.0409719 10.7053936, 76.0405835 10.7066923, 76.040116 10.7071324, 76.039677 10.7072168, 76.0390683 10.7064736, 76.0385307 10.7058902, 76.0378696 10.7038063, 76.0359867 10.7021185, 76.0342452 10.7008737, 76.0326873 10.7005616, 76.0321115 10.6994877, 76.0307369 10.6990258, 76.0302931 10.698924, 76.0293969 10.6985755, 76.0265061 10.6984023, 76.025512 10.6968337, 76.0243438 10.6965201, 76.0216367 10.6967844, 76.0212416 10.696823, 76.0199538 10.6967404, 76.016079 10.694599, 76.013248 10.6910088, 76.0125183 10.6900835, 76.008024 10.6894006, 76.0066238 10.6897797, 76.0054818 10.6906627, 76.0044397 10.6910306, 76.004197 10.6911163, 76.0018296 10.691933, 76.0007282 10.6940863, 76.0006298 10.6971272, 75.9999513 10.6964271, 75.9993948 10.6941198, 75.9972267 10.692252, 75.9949189 10.6919933, 75.9923179 10.6911487, 75.9915921 10.690969, 75.9901448 10.6906105, 75.9886442 10.690393, 75.9871292 10.6901735, 75.9869575 10.6901486, 75.9865425 10.6897903, 75.9853743 10.6891485, 75.9846392 10.686926, 75.9848993 10.6849479, 75.9835012 10.6850942, 75.9817216 10.6862037, 75.981724 10.6866354, 75.9817329 10.6882373, 75.9814992 10.689957, 75.9811278 10.691568, 75.9803816 10.692442, 75.9797278 10.6926348, 75.979442 10.692641, 75.9781768 10.6926685, 75.9780651 10.6911555, 75.9766634 10.6906497, 75.974631 10.6919933, 75.9730913 10.6902613, 75.9718174 10.6899921, 75.9701675 10.6896435, 75.9697293 10.689753, 75.9678344 10.6902264, 75.9665279 10.689093, 75.9652424 10.6879778, 75.9615153 10.6842826, 75.957351 10.6841194, 75.957166 10.684549, 75.9570613 10.6847599, 75.9568736 10.6850762, 75.9567068 10.6854311, 75.9565169 10.6858352, 75.9562486 10.6863571, 75.9559026 10.6869765, 75.9555218 10.6877988, 75.9551516 10.6886792, 75.9548861 10.6891984, 75.9547949 10.6894672, 75.9545079 10.6901235, 75.9544411 10.6902758, 75.9541216 10.6910038, 75.9536067 10.6921978, 75.9534672 10.6924508, 75.9526437 10.6942667, 75.9522012 10.6953473, 75.9519221 10.6960042, 75.9518149 10.6962566, 75.9512114 10.6977774, 75.9508789 10.6986893, 75.9509271 10.6987789, 75.9509915 10.698937, 75.95097 10.6990793, 75.9502083 10.7008715, 75.9499145 10.7016115, 75.9497282 10.7021234, 75.9493527 10.7030696, 75.9489423 10.7040922, 75.948658 10.7048802, 75.9484343 10.7053529, 75.9481966 10.7058553, 75.9479901 10.7061821, 75.947789 10.7064035, 75.9476978 10.70648, 75.9475356 10.706666, 75.9473464 10.7070809, 75.9469521 10.7080454, 75.9467134 10.7086384, 75.9466597 10.7088651, 75.9466383 10.7090996, 75.9466195 10.7092947, 75.9464934 10.7097243, 75.9462815 10.7102645, 75.9459007 10.7110104, 75.9454796 10.7117826, 75.9450236 10.7126233, 75.9446239 10.71324, 75.9442136 10.7138804, 75.9439802 10.7143363, 75.9437656 10.7147079, 75.9434733 10.7152745, 75.9430253 10.7161969, 75.942505 10.7173355, 75.9421509 10.718134, 75.9416467 10.7194016, 75.9413168 10.7202291, 75.9411478 10.7206086, 75.9405363 10.7218394, 75.9403431 10.7221292, 75.9401393 10.722514, 75.9399059 10.7230174, 75.9397209 10.723389, 75.9394714 10.723837, 75.9393668 10.7242059, 75.9394205 10.7245696, 75.9395921 10.7247646, 75.9396243 10.7250282, 75.9395921 10.725376, 75.9392059 10.7261192, 75.938589 10.7272313, 75.9376448 10.7290866, 75.9371996 10.7298561, 75.9368943 10.7303111, 75.9367222 10.7305676, 75.9365666 10.7308575, 75.9364754 10.731237, 75.9360382 10.7315664, 75.9356224 10.7318168, 75.9353971 10.732075, 75.9352684 10.7323069, 75.9352684 10.732581, 75.935263 10.7329605, 75.9349519 10.7335877, 75.9345549 10.7345522, 75.9338793 10.7360447, 75.9336698 10.7365075, 75.9328973 10.7382257, 75.9322321 10.7397542, 75.9318298 10.7407714, 75.9311265 10.742484, 75.9307194 10.7434751, 75.9302688 10.7446715, 75.9302312 10.7449508, 75.9302258 10.7451563, 75.930081 10.7456148, 75.9299618 10.7459345, 75.92911 10.7482184, 75.9285521 10.7497995, 75.927844 10.7515597, 75.9276509 10.7518601, 75.9273183 10.7524504, 75.9267443 10.7535045, 75.9260201 10.7549432, 75.9257035 10.7556756, 75.9252477 10.7567298, 75.9250833 10.7571132, 75.9244001 10.7587061, 75.9240771 10.7594714, 75.9235793 10.7606508, 75.9232342 10.7615801, 75.9223923 10.7638467, 75.9221739 10.7644347, 75.9216469 10.765969, 75.9215838 10.7661527, 75.921529 10.7662935, 75.9209068 10.7678927, 75.9200603 10.7700683, 75.9189928 10.7730669, 75.9188425 10.7735991, 75.9186548 10.7740892, 75.91856 10.7742836, 75.91794 10.7755547, 75.9176141 10.7761339, 75.9171796 10.7769455, 75.9165305 10.7781101, 75.9161447 10.7790953, 75.9154093 10.7808504, 75.914783 10.7817938, 75.9143049 10.7826013, 75.9137753 10.783301, 75.9131739 10.7839704, 75.9126728 10.7842877, 75.9122562 10.7844071, 75.9118629 10.7844517, 75.9115054 10.7844376, 75.9112607 10.7843289, 75.9109655 10.7840801, 75.9110135 10.7839478, 75.9110231 10.7838349, 75.9110669 10.7836883, 75.9110593 10.7835609, 75.9110213 10.7834756, 75.910946 10.783421, 75.9108889 10.7834369, 75.910848 10.7834905, 75.9108496 10.7835749, 75.9108879 10.7836453, 75.9108773 10.7837733, 75.9108268 10.7838996, 75.9108593 10.7840962, 75.9107652 10.7842859, 75.9106319 10.7845236, 75.9105165 10.7846547, 75.9104025 10.7847153, 75.910348 10.7846893, 75.9102648 10.7846551, 75.9101697 10.7846761, 75.9101039 10.7847368, 75.9100958 10.7848949, 75.9101589 10.784995, 75.9104285 10.7851083, 75.9120405 10.7860542, 75.9114273 10.7874003, 75.911035 10.7883808, 75.9106404 10.7879723, 75.91024 10.7876173, 75.9093529 10.7869316, 75.9087382 10.7865678, 75.9086805 10.7865523, 75.9086159 10.7865597, 75.908575 10.7865754, 75.9085412 10.7866048, 75.9085153 10.7866782, 75.9085318 10.7867428, 75.9085672 10.7867761, 75.9086096 10.7867911, 75.9086722 10.7867915, 75.9091464 10.7870763, 75.9097087 10.7874615, 75.9098336 10.788804, 75.9097747 10.7903305, 75.9096183 10.7915585, 75.9092719 10.7933811, 75.9088204 10.7952063, 75.9080513 10.7987227, 75.907293 10.8017757, 75.9066868 10.8048004, 75.9055924 10.8101329, 75.9051282 10.8121115, 75.90379 10.8178153, 75.9029639 10.8215616, 75.9027225 10.8227998, 75.9022343 10.8248916, 75.9018695 10.8264459, 75.9014565 10.8283691, 75.9012488 10.8293174, 75.9009361 10.8307453, 75.8999008 10.8353924, 75.8993697 10.8382059, 75.8987689 10.8410669, 75.8981466 10.8441121, 75.8976194 10.8465131, 75.8966024 10.8511694, 75.8960277 10.8537957, 75.8955442 10.8560277, 75.8951318 10.8579314, 75.8946812 10.8597385, 75.8946035 10.8600518, 75.8940697 10.862204, 75.8934957 10.8644957, 75.8934788 10.8645718, 75.8929056 10.8671509, 75.8928187 10.8675336, 75.8924067 10.8693478, 75.8920419 10.8713023, 75.8913606 10.8745896, 75.8912212 10.875069, 75.8908939 10.8763596, 75.890497 10.8781402, 75.8898961 10.8813748, 75.8892578 10.884093, 75.8889515 10.8855721, 75.8886087 10.8872274, 75.8883244 10.8888657, 75.8879167 10.8907358, 75.8874071 10.8934013, 75.8871818 10.8943811, 75.8869672 10.8952608, 75.8867475 10.8963512, 75.8865702 10.8972309, 75.8857655 10.901129, 75.8853739 10.9030411, 75.8848268 10.9056433, 75.8845117 10.9071128, 75.884183 10.9086458, 75.8836412 10.9112532, 75.8831477 10.9137974, 75.8827233 10.9153967, 75.8814901 10.921514, 75.8811937 10.922851, 75.8808678 10.9243214, 75.8800739 10.9280348, 75.8795884 10.9300651, 75.8794731 10.9305472, 75.879221 10.9316849, 75.87906 10.9323907, 75.8785504 10.9346713, 75.8782446 10.9360144, 75.8780495 10.9368932, 75.8778854 10.9374601, 75.8772777 10.9394711, 75.8760479 10.9452763, 75.8756611 10.946619, 75.8755571 10.9469801, 75.8752158 10.948393, 75.8751118 10.9488234, 75.875085 10.9491869, 75.8750689 10.9493975, 75.8749938 10.9496187, 75.8745512 10.9511066, 75.8742106 10.952389, 75.8740336 10.9532633, 75.8737278 10.9546037, 75.8735347 10.9554384, 75.8733884 10.9560109, 75.8731189 10.9570658, 75.873068 10.9573002, 75.873076 10.9573976, 75.8729821 10.9577347, 75.8729124 10.9578901, 75.8725369 10.9593542, 75.872187 10.9606987, 75.8717304 10.9624529, 75.8716357 10.9628169, 75.8712172 10.9643969, 75.8711395 10.9648366, 75.8710805 10.965595, 75.8710965 10.965882, 75.8710402 10.9661664, 75.8708203 10.9667299, 75.8705869 10.9674804, 75.8701712 10.9688734, 75.8697508 10.9703693))